start=new Date('2023-01-04T00:00:00.000Z').valueOf();
sats=[{"OBJECT_ID":"2022-077AD","OBJECT_TYPE":"PAYLOAD","INCLINATION":"97.6596","DECAY_DATE":null,"MEAN_ANOMALY":"343.5590","MEAN_MOTION":"15.01254083","PERIAPSIS":"561.441","GP_ID":"222085497","REV_AT_EPOCH":"2732","SEMIMAJOR_AXIS":"6941.165","NORAD_CAT_ID":"53070","SITE":"AFWTR","BSTAR":"0.00014358000000","MEAN_ELEMENT_THEORY":"SGP4","TIME_SYSTEM":"UTC","TLE_LINE1":"1 53070U 22077AD  23003.78992497  .00001785  00000-0  14358-3 0  9991","ECCENTRICITY":"0.00022900","COUNTRY_CODE":"US","APOAPSIS":"564.620","OBJECT_NAME":"STARLINK-4342","EPHEMERIS_TYPE":"0","MEAN_MOTION_DOT":"0.00001785","RCS_SIZE":"LARGE","CENTER_NAME":"EARTH","FILE":"3730757","ARG_OF_PERICENTER":"16.5709","MEAN_MOTION_DDOT":"0.0000000000000","REF_FRAME":"TEME","ELEMENT_SET_NO":"999","EPOCH":"2023-01-03T18:57:29.517408","RA_OF_ASC_NODE":"187.2172","TLE_LINE2":"2 53070  97.6596 187.2172 0002290  16.5709 343.5590 15.01254083 27320","PERIOD":"95.920","LAUNCH_DATE":"2022-07-11","CLASSIFICATION_TYPE":"U"},{"EPOCH":"2023-01-03T05:58:59.488032","RA_OF_ASC_NODE":"186.6993","REF_FRAME":"TEME","ELEMENT_SET_NO":"999","LAUNCH_DATE":"2022-07-11","CLASSIFICATION_TYPE":"U","PERIOD":"95.920","TLE_LINE2":"2 53071  97.6569 186.6993 0003465  15.6950 344.4381 15.01251809 26665","OBJECT_NAME":"STARLINK-4328","MEAN_MOTION_DOT":"0.00000620","EPHEMERIS_TYPE":"0","APOAPSIS":"565.442","COUNTRY_CODE":"US","ECCENTRICITY":"0.00034650","ARG_OF_PERICENTER":"15.6950","MEAN_MOTION_DDOT":"0.0000000000000","CENTER_NAME":"EARTH","FILE":"3730926","RCS_SIZE":"MEDIUM","NORAD_CAT_ID":"53071","SITE":"AFWTR","SEMIMAJOR_AXIS":"6941.172","TIME_SYSTEM":"UTC","TLE_LINE1":"1 53071U 22077AE  23003.24929963  .00000620  00000-0  52914-4 0  9999","MEAN_ELEMENT_THEORY":"SGP4","BSTAR":"0.00005291400000","DECAY_DATE":null,"INCLINATION":"97.6569","OBJECT_TYPE":"PAYLOAD","OBJECT_ID":"2022-077AE","REV_AT_EPOCH":"2666","GP_ID":"222115790","PERIAPSIS":"560.632","MEAN_MOTION":"15.01251809","MEAN_ANOMALY":"344.4381"},{"MEAN_MOTION_DDOT":"0.0000000000000","ARG_OF_PERICENTER":"17.5330","CENTER_NAME":"EARTH","FILE":"3730926","RCS_SIZE":"LARGE","OBJECT_NAME":"STARLINK-4344","EPHEMERIS_TYPE":"0","MEAN_MOTION_DOT":"0.00002570","APOAPSIS":"565.012","COUNTRY_CODE":"US","ECCENTRICITY":"0.00028610","LAUNCH_DATE":"2022-07-11","CLASSIFICATION_TYPE":"U","PERIOD":"95.920","TLE_LINE2":"2 53072  97.6585 186.6976 0002861  17.5330 342.5993 15.01255219 26664","EPOCH":"2023-01-03T06:04:18.837984","RA_OF_ASC_NODE":"186.6976","REF_FRAME":"TEME","ELEMENT_SET_NO":"999","PERIAPSIS":"561.041","GP_ID":"222115319","REV_AT_EPOCH":"2666","MEAN_MOTION":"15.01255219","MEAN_ANOMALY":"342.5993","DECAY_DATE":null,"INCLINATION":"97.6585","OBJECT_TYPE":"PAYLOAD","OBJECT_ID":"2022-077AF","TIME_SYSTEM":"UTC","TLE_LINE1":"1 53072U 22077AF  23003.25299581  .00002570  00000-0  20467-3 0  9990","MEAN_ELEMENT_THEORY":"SGP4","BSTAR":"0.00020467000000","NORAD_CAT_ID":"53072","SITE":"AFWTR","SEMIMAJOR_AXIS":"6941.162"},{"BSTAR":"0.00017776000000","MEAN_ELEMENT_THEORY":"SGP4","TLE_LINE1":"1 53073U 22077AG  23003.44554944  .00002225  00000-0  17776-3 0  9995","TIME_SYSTEM":"UTC","SEMIMAJOR_AXIS":"6941.138","SITE":"AFWTR","NORAD_CAT_ID":"53073","MEAN_ANOMALY":"348.0348","MEAN_MOTION":"15.01262991","GP_ID":"222114867","PERIAPSIS":"560.545","REV_AT_EPOCH":"2669","OBJECT_ID":"2022-077AG","OBJECT_TYPE":"PAYLOAD","DECAY_DATE":null,"INCLINATION":"97.6552","TLE_LINE2":"2 53073  97.6552 186.8964 0003540  12.0961 348.0348 15.01262991 26696","PERIOD":"95.919","LAUNCH_DATE":"2022-07-11","CLASSIFICATION_TYPE":"U","ELEMENT_SET_NO":"999","REF_FRAME":"TEME","EPOCH":"2023-01-03T10:41:35.471616","RA_OF_ASC_NODE":"186.8964","RCS_SIZE":"LARGE","CENTER_NAME":"EARTH","FILE":"3730926","MEAN_MOTION_DDOT":"0.0000000000000","ARG_OF_PERICENTER":"12.0961","ECCENTRICITY":"0.00035400","COUNTRY_CODE":"US","APOAPSIS":"565.460","MEAN_MOTION_DOT":"0.00002225","EPHEMERIS_TYPE":"0","OBJECT_NAME":"STARLINK-4346"},{"PERIAPSIS":"560.667","GP_ID":"222086172","REV_AT_EPOCH":"2732","MEAN_MOTION":"15.01253158","MEAN_ANOMALY":"340.2917","INCLINATION":"97.6565","DECAY_DATE":null,"OBJECT_TYPE":"PAYLOAD","OBJECT_ID":"2022-077AH","TIME_SYSTEM":"UTC","TLE_LINE1":"1 53074U 22077AH  23003.78276377  .00001757  00000-0  14134-3 0  9998","MEAN_ELEMENT_THEORY":"SGP4","BSTAR":"0.00014134000000","NORAD_CAT_ID":"53074","SITE":"AFWTR","SEMIMAJOR_AXIS":"6941.168","MEAN_MOTION_DDOT":"0.0000000000000","ARG_OF_PERICENTER":"19.8439","FILE":"3730773","CENTER_NAME":"EARTH","RCS_SIZE":"LARGE","OBJECT_NAME":"STARLINK-4310","MEAN_MOTION_DOT":"0.00001757","EPHEMERIS_TYPE":"0","APOAPSIS":"565.398","COUNTRY_CODE":"US","ECCENTRICITY":"0.00034080","CLASSIFICATION_TYPE":"U","LAUNCH_DATE":"2022-07-11","PERIOD":"95.920","TLE_LINE2":"2 53074  97.6565 187.2254 0003408  19.8439 340.2917 15.01253158 27328","RA_OF_ASC_NODE":"187.2254","EPOCH":"2023-01-03T18:47:10.789728","REF_FRAME":"TEME","ELEMENT_SET_NO":"999"},{"TLE_LINE2":"2 53075  97.6548 186.8964 0003273  11.1636 348.9660 15.01263296 26690","PERIOD":"95.919","CLASSIFICATION_TYPE":"U","LAUNCH_DATE":"2022-07-11","ELEMENT_SET_NO":"999","REF_FRAME":"TEME","EPOCH":"2023-01-03T10:36:36.474912","RA_OF_ASC_NODE":"186.8964","RCS_SIZE":"LARGE","CENTER_NAME":"EARTH","FILE":"3730926","ARG_OF_PERICENTER":"11.1636","MEAN_MOTION_DDOT":"0.0000000000000","ECCENTRICITY":"0.00032730","COUNTRY_CODE":"US","APOAPSIS":"565.274","MEAN_MOTION_DOT":"0.00002004","EPHEMERIS_TYPE":"0","OBJECT_NAME":"STARLINK-4348","BSTAR":"0.00016058000000","MEAN_ELEMENT_THEORY":"SGP4","TLE_LINE1":"1 53075U 22077AJ  23003.44208883  .00002004  00000-0  16058-3 0  9992","TIME_SYSTEM":"UTC","SEMIMAJOR_AXIS":"6941.137","SITE":"AFWTR","NORAD_CAT_ID":"53075","MEAN_ANOMALY":"348.9660","MEAN_MOTION":"15.01263296","GP_ID":"222116219","PERIAPSIS":"560.730","REV_AT_EPOCH":"2669","OBJECT_ID":"2022-077AJ","OBJECT_TYPE":"PAYLOAD","DECAY_DATE":null,"INCLINATION":"97.6548"},{"INCLINATION":"97.6580","DECAY_DATE":null,"OBJECT_ID":"2022-077AK","OBJECT_TYPE":"PAYLOAD","MEAN_MOTION":"15.01261363","REV_AT_EPOCH":"2732","GP_ID":"222086181","PERIAPSIS":"560.696","MEAN_ANOMALY":"343.3250","SITE":"AFWTR","NORAD_CAT_ID":"53076","SEMIMAJOR_AXIS":"6941.143","TLE_LINE1":"1 53076U 22077AK  23003.78066989  .00001141  00000-0  93409-4 0  9996","TIME_SYSTEM":"UTC","BSTAR":"0.00009340900000","MEAN_ELEMENT_THEORY":"SGP4","APOAPSIS":"565.320","EPHEMERIS_TYPE":"0","MEAN_MOTION_DOT":"0.00001141","OBJECT_NAME":"STARLINK-4347","ECCENTRICITY":"0.00033310","COUNTRY_CODE":"US","FILE":"3730773","CENTER_NAME":"EARTH","MEAN_MOTION_DDOT":"0.0000000000000","ARG_OF_PERICENTER":"16.8084","RCS_SIZE":"LARGE","RA_OF_ASC_NODE":"187.2266","EPOCH":"2023-01-03T18:44:09.878496","ELEMENT_SET_NO":"999","REF_FRAME":"TEME","LAUNCH_DATE":"2022-07-11","CLASSIFICATION_TYPE":"U","TLE_LINE2":"2 53076  97.6580 187.2266 0003331  16.8084 343.3250 15.01261363 27329","PERIOD":"95.919"},{"EPOCH":"2023-01-03T10:33:35.326944","RA_OF_ASC_NODE":"186.8964","ELEMENT_SET_NO":"999","REF_FRAME":"TEME","LAUNCH_DATE":"2022-07-11","CLASSIFICATION_TYPE":"U","PERIOD":"95.919","TLE_LINE2":"2 53077  97.6534 186.8964 0003640   9.0765 351.0524 15.01267186 26690","EPHEMERIS_TYPE":"0","MEAN_MOTION_DOT":"0.00003882","OBJECT_NAME":"STARLINK-4315","APOAPSIS":"565.516","COUNTRY_CODE":"US","ECCENTRICITY":"0.00036400","MEAN_MOTION_DDOT":"0.0000000000000","ARG_OF_PERICENTER":"9.0765","CENTER_NAME":"EARTH","FILE":"3730926","RCS_SIZE":"LARGE","SITE":"AFWTR","NORAD_CAT_ID":"53077","SEMIMAJOR_AXIS":"6941.125","TLE_LINE1":"1 53077U 22077AL  23003.43999221  .00003882  00000-0  30661-3 0  9997","TIME_SYSTEM":"UTC","MEAN_ELEMENT_THEORY":"SGP4","BSTAR":"0.00030661000000","INCLINATION":"97.6534","DECAY_DATE":null,"OBJECT_TYPE":"PAYLOAD","OBJECT_ID":"2022-077AL","PERIAPSIS":"560.463","GP_ID":"222115342","REV_AT_EPOCH":"2669","MEAN_MOTION":"15.01267186","MEAN_ANOMALY":"351.0524"},{"OBJECT_TYPE":"PAYLOAD","OBJECT_ID":"2022-077AM","INCLINATION":"97.6553","DECAY_DATE":null,"MEAN_ANOMALY":"345.9176","GP_ID":"222084039","PERIAPSIS":"561.041","REV_AT_EPOCH":"2729","MEAN_MOTION":"15.01257225","SEMIMAJOR_AXIS":"6941.155","NORAD_CAT_ID":"53078","SITE":"AFWTR","MEAN_ELEMENT_THEORY":"SGP4","BSTAR":"0.00021098000000","TIME_SYSTEM":"UTC","TLE_LINE1":"1 53078U 22077AM  23003.57700672  .00002652  00000-0  21098-3 0  9991","COUNTRY_CODE":"US","ECCENTRICITY":"0.00028510","OBJECT_NAME":"STARLINK-4322","EPHEMERIS_TYPE":"0","MEAN_MOTION_DOT":"0.00002652","APOAPSIS":"564.999","RCS_SIZE":"LARGE","ARG_OF_PERICENTER":"14.2128","MEAN_MOTION_DDOT":"0.0000000000000","CENTER_NAME":"EARTH","FILE":"3730626","REF_FRAME":"TEME","ELEMENT_SET_NO":"999","EPOCH":"2023-01-03T13:50:53.380608","RA_OF_ASC_NODE":"187.0251","PERIOD":"95.920","TLE_LINE2":"2 53078  97.6553 187.0251 0002851  14.2128 345.9176 15.01257225 27293","CLASSIFICATION_TYPE":"U","LAUNCH_DATE":"2022-07-11"},{"NORAD_CAT_ID":"53079","SITE":"AFWTR","SEMIMAJOR_AXIS":"6941.151","TIME_SYSTEM":"UTC","TLE_LINE1":"1 53079U 22077AN  23003.43814674  .00000326  00000-0  30019-4 0  9995","BSTAR":"0.00003001900000","MEAN_ELEMENT_THEORY":"SGP4","DECAY_DATE":null,"INCLINATION":"97.6543","OBJECT_ID":"2022-077AN","OBJECT_TYPE":"PAYLOAD","MEAN_MOTION":"15.01258782","GP_ID":"222115791","REV_AT_EPOCH":"2669","PERIAPSIS":"560.687","MEAN_ANOMALY":"348.8086","RA_OF_ASC_NODE":"186.8955","EPOCH":"2023-01-03T10:30:55.878336","REF_FRAME":"TEME","ELEMENT_SET_NO":"999","LAUNCH_DATE":"2022-07-11","CLASSIFICATION_TYPE":"U","TLE_LINE2":"2 53079  97.6543 186.8955 0003355  11.3213 348.8086 15.01258782 26698","PERIOD":"95.920","APOAPSIS":"565.344","OBJECT_NAME":"STARLINK-4327","MEAN_MOTION_DOT":"0.00000326","EPHEMERIS_TYPE":"0","ECCENTRICITY":"0.00033550","COUNTRY_CODE":"US","FILE":"3730926","CENTER_NAME":"EARTH","MEAN_MOTION_DDOT":"0.0000000000000","ARG_OF_PERICENTER":"11.3213","RCS_SIZE":"LARGE"}];
